[
    {
        "Altitude(m)": 554015.3023024292,
        "Argument of Periapsis(deg)": 0.006622991110713501,
        "Eccentricity": 0.0,
        "Inclination(deg)": 53.0,
        "Latitude(deg)": 22.287905987465233,
        "Longitude(deg)": -52.88367082636077,
        "Mean Anomaly(deg)": 28.27339286757759,
        "RAAN(deg)": 29.990143368528013,
        "Satellite Name": "Starlink Shell 1 133",
        "Satellite Number": 133,
        "Semi-Major Axis(m)": 6931778.249405717,
        "Time(s)": 190
    },
    {
        "Altitude(m)": 554064.9636693703,
        "Argument of Periapsis(deg)": 0.0069715695902247375,
        "Eccentricity": 0.0,
        "Inclination(deg)": 53.0,
        "Latitude(deg)": 22.766379561835357,
        "Longitude(deg)": -52.483790677605114,
        "Mean Anomaly(deg)": 28.900224071134303,
        "RAAN(deg)": 29.98962459845054,
        "Satellite Name": "Starlink Shell 1 133",
        "Satellite Number": 133,
        "Semi-Major Axis(m)": 6931778.249405717,
        "Time(s)": 200
    },
    {
        "Altitude(m)": 554116.4622975646,
        "Argument of Periapsis(deg)": 0.007320148069735974,
        "Eccentricity": 0.0,
        "Inclination(deg)": 53.0,
        "Latitude(deg)": 23.243598540307975,
        "Longitude(deg)": -52.080830592615705,
        "Mean Anomaly(deg)": 29.52705527469103,
        "RAAN(deg)": 29.98910582837307,
        "Satellite Name": "Starlink Shell 1 133",
        "Satellite Number": 133,
        "Semi-Major Axis(m)": 6931778.249405717,
        "Time(s)": 210
    },
    {
        "Altitude(m)": 554169.7526783933,
        "Argument of Periapsis(deg)": 0.007668726549247212,
        "Eccentricity": 0.0,
        "Inclination(deg)": 53.0,
        "Latitude(deg)": 23.719524981482756,
        "Longitude(deg)": -51.67470483206289,
        "Mean Anomaly(deg)": 30.15388647824774,
        "RAAN(deg)": 29.988587058295597,
        "Satellite Name": "Starlink Shell 1 133",
        "Satellite Number": 133,
        "Semi-Major Axis(m)": 6931778.249405717,
        "Time(s)": 220
    },
    {
        "Altitude(m)": 554224.7885723158,
        "Argument of Periapsis(deg)": 0.00801730502875845,
        "Eccentricity": 0.0,
        "Inclination(deg)": 53.0,
        "Latitude(deg)": 24.1941201881403,
        "Longitude(deg)": -51.26532644948438,
        "Mean Anomaly(deg)": 30.780717681804443,
        "RAAN(deg)": 29.988068288218123,
        "Satellite Name": "Starlink Shell 1 133",
        "Satellite Number": 133,
        "Semi-Major Axis(m)": 6931778.249405717,
        "Time(s)": 230
    },
    {
        "Altitude(m)": 554281.5230340451,
        "Argument of Periapsis(deg)": 0.008365883508269684,
        "Eccentricity": 0.0,
        "Inclination(deg)": 53.0,
        "Latitude(deg)": 24.66734468227973,
        "Longitude(deg)": -50.85260676802666,
        "Mean Anomaly(deg)": 31.407548885361155,
        "RAAN(deg)": 29.987549518140654,
        "Satellite Name": "Starlink Shell 1 133",
        "Satellite Number": 133,
        "Semi-Major Axis(m)": 6931778.249405717,
        "Time(s)": 240
    },
    {
        "Altitude(m)": 554339.9084380564,
        "Argument of Periapsis(deg)": 0.008714461987780921,
        "Eccentricity": 0.0,
        "Inclination(deg)": 53.0,
        "Latitude(deg)": 25.139158179625657,
        "Longitude(deg)": -50.43645637128649,
        "Mean Anomaly(deg)": 32.03438008891787,
        "RAAN(deg)": 29.98703074806318,
        "Satellite Name": "Starlink Shell 1 133",
        "Satellite Number": 133,
        "Semi-Major Axis(m)": 6931778.249405717,
        "Time(s)": 250
    },
    {
        "Altitude(m)": 554399.8965043604,
        "Argument of Periapsis(deg)": 0.009063040467292158,
        "Eccentricity": 0.0,
        "Inclination(deg)": 53.0,
        "Latitude(deg)": 25.60951956360495,
        "Longitude(deg)": -50.01678458264146,
        "Mean Anomaly(deg)": 32.661211292474604,
        "RAAN(deg)": 29.986511977985707,
        "Satellite Name": "Starlink Shell 1 133",
        "Satellite Number": 133,
        "Semi-Major Axis(m)": 6931778.249405717,
        "Time(s)": 260
    },
    {
        "Altitude(m)": 554461.438324602,
        "Argument of Periapsis(deg)": 0.009411618946803396,
        "Eccentricity": 0.0,
        "Inclination(deg)": 53.0,
        "Latitude(deg)": 26.078386858792115,
        "Longitude(deg)": -49.5934989460865,
        "Mean Anomaly(deg)": 33.28804249603131,
        "RAAN(deg)": 29.985993207908237,
        "Satellite Name": "Starlink Shell 1 133",
        "Satellite Number": 133,
        "Semi-Major Axis(m)": 6931778.249405717,
        "Time(s)": 270
    },
    {
        "Altitude(m)": 554524.484388413,
        "Argument of Periapsis(deg)": 0.009760197426314633,
        "Eccentricity": 0.0,
        "Inclination(deg)": 53.0,
        "Latitude(deg)": 26.54571720382354,
        "Longitude(deg)": -49.16650622160254,
        "Mean Anomaly(deg)": 33.91487369958802,
        "RAAN(deg)": 29.985474437830757,
        "Satellite Name": "Starlink Shell 1 133",
        "Satellite Number": 133,
        "Semi-Major Axis(m)": 6931778.249405717,
        "Time(s)": 280
    },
    {
        "Altitude(m)": 554588.9846100237,
        "Argument of Periapsis(deg)": 0.01010877590582587,
        "Eccentricity": 0.0,
        "Inclination(deg)": 53.0,
        "Latitude(deg)": 27.011466823787067,
        "Longitude(deg)": -48.73571186948031,
        "Mean Anomaly(deg)": 34.54170490314473,
        "RAAN(deg)": 29.984955667753287,
        "Satellite Name": "Starlink Shell 1 133",
        "Satellite Number": 133,
        "Semi-Major Axis(m)": 6931778.249405717,
        "Time(s)": 290
    },
    {
        "Altitude(m)": 554654.8883551314,
        "Argument of Periapsis(deg)": 0.010457354385337106,
        "Eccentricity": 0.0,
        "Inclination(deg)": 53.0,
        "Latitude(deg)": 27.475591002091278,
        "Longitude(deg)": -48.30101953664972,
        "Mean Anomaly(deg)": 35.16853610670144,
        "RAAN(deg)": 29.98443689767581,
        "Satellite Name": "Starlink Shell 1 133",
        "Satellite Number": 133,
        "Semi-Major Axis(m)": 6931778.249405717,
        "Time(s)": 300
    },
    {
        "Altitude(m)": 554722.1444679839,
        "Argument of Periapsis(deg)": 0.010805932864848343,
        "Eccentricity": 0.0,
        "Inclination(deg)": 53.0,
        "Latitude(deg)": 27.938044051821038,
        "Longitude(deg)": -47.86233205807822,
        "Mean Anomaly(deg)": 35.79536731025818,
        "RAAN(deg)": 29.98391812759834,
        "Satellite Name": "Starlink Shell 1 133",
        "Satellite Number": 133,
        "Semi-Major Axis(m)": 6931778.249405717,
        "Time(s)": 310
    },
    {
        "Altitude(m)": 554790.7012987038,
        "Argument of Periapsis(deg)": 0.01115451134435958,
        "Eccentricity": 0.0,
        "Inclination(deg)": 53.0,
        "Latitude(deg)": 28.398779286593268,
        "Longitude(deg)": -47.41955094769947,
        "Mean Anomaly(deg)": 36.42219851381488,
        "RAAN(deg)": 29.98339935752087,
        "Satellite Name": "Starlink Shell 1 133",
        "Satellite Number": 133,
        "Semi-Major Axis(m)": 6931778.249405717,
        "Time(s)": 320
    },
    {
        "Altitude(m)": 554860.5067307928,
        "Argument of Periapsis(deg)": 0.011503089823870818,
        "Eccentricity": 0.0,
        "Inclination(deg)": 53.0,
        "Latitude(deg)": 28.857748990925206,
        "Longitude(deg)": -46.972575891963224,
        "Mean Anomaly(deg)": 37.0490297173716,
        "RAAN(deg)": 29.982880587443393,
        "Satellite Name": "Starlink Shell 1 133",
        "Satellite Number": 133,
        "Semi-Major Axis(m)": 6931778.249405717,
        "Time(s)": 330
    },
    {
        "Altitude(m)": 554931.508208834,
        "Argument of Periapsis(deg)": 0.011851668303382053,
        "Eccentricity": 0.0,
        "Inclination(deg)": 53.0,
        "Latitude(deg)": 29.314904390129957,
        "Longitude(deg)": -46.521305759112245,
        "Mean Anomaly(deg)": 37.675860920928315,
        "RAAN(deg)": 29.982361817365923,
        "Satellite Name": "Starlink Shell 1 133",
        "Satellite Number": 133,
        "Semi-Major Axis(m)": 6931778.249405717,
        "Time(s)": 340
    },
    {
        "Altitude(m)": 555003.6527663905,
        "Argument of Periapsis(deg)": 0.012200246782893292,
        "Eccentricity": 0.0,
        "Inclination(deg)": 53.0,
        "Latitude(deg)": 29.77019561976296,
        "Longitude(deg)": -46.06563809869216,
        "Mean Anomaly(deg)": 38.302692124485034,
        "RAAN(deg)": 29.981843047288454,
        "Satellite Name": "Starlink Shell 1 133",
        "Satellite Number": 133,
        "Semi-Major Axis(m)": 6931778.249405717,
        "Time(s)": 350
    },
    {
        "Altitude(m)": 555076.8870540131,
        "Argument of Periapsis(deg)": 0.012548825262404526,
        "Eccentricity": 0.0,
        "Inclination(deg)": 53.0,
        "Latitude(deg)": 30.22357169464196,
        "Longitude(deg)": -45.60546864443168,
        "Mean Anomaly(deg)": 38.92952332804174,
        "RAAN(deg)": 29.981324277210977,
        "Satellite Name": "Starlink Shell 1 133",
        "Satellite Number": 133,
        "Semi-Major Axis(m)": 6931778.249405717,
        "Time(s)": 360
    },
    {
        "Altitude(m)": 555151.157367443,
        "Argument of Periapsis(deg)": 0.012897403741915765,
        "Eccentricity": 0.0,
        "Inclination(deg)": 53.0,
        "Latitude(deg)": 30.67498047746654,
        "Longitude(deg)": -45.140692333647515,
        "Mean Anomaly(deg)": 39.55635453159846,
        "RAAN(deg)": 29.980805507133507,
        "Satellite Name": "Starlink Shell 1 133",
        "Satellite Number": 133,
        "Semi-Major Axis(m)": 6931778.249405717,
        "Time(s)": 370
    }
]